start=new Date('2023-05-11T00:00:00.000Z').valueOf();
sats=[{"ELEMENT_SET_NO":"999","EPOCH":"2023-05-10T03:49:42.036384","LAUNCH_DATE":"2021-03-04","EPHEMERIS_TYPE":"0","PERIAPSIS":"546.186","OBJECT_NAME":"STARLINK-2142","SEMIMAJOR_AXIS":"6925.336","ECCENTRICITY":"0.00014660","ARG_OF_PERICENTER":"89.9876","REV_AT_EPOCH":"12299","TLE_LINE2":"2 47732  53.0555  91.0402 0001466  89.9876 270.1281 15.06404063122991","MEAN_MOTION":"15.06404063","PERIOD":"95.592","BSTAR":"0.00093347000000","INCLINATION":"53.0555","SITE":"AFETR","DECAY_DATE":null,"MEAN_ANOMALY":"270.1281","MEAN_ELEMENT_THEORY":"SGP4","TIME_SYSTEM":"UTC","NORAD_CAT_ID":"47732","MEAN_MOTION_DOT":"0.00013651","RA_OF_ASC_NODE":"91.0402","CLASSIFICATION_TYPE":"U","RCS_SIZE":"LARGE","OBJECT_ID":"2021-017L","REF_FRAME":"TEME","GP_ID":"231533574","MEAN_MOTION_DDOT":"0.0000000000000","FILE":"3904555","COUNTRY_CODE":"US","OBJECT_TYPE":"PAYLOAD","CENTER_NAME":"EARTH","TLE_LINE1":"1 47732U 21017L   23130.15951431  .00013651  00000-0  93347-3 0  9997","APOAPSIS":"548.216"},{"SITE":"AFETR","MEAN_ELEMENT_THEORY":"SGP4","DECAY_DATE":null,"MEAN_ANOMALY":"279.6852","TLE_LINE2":"2 47733  53.0530 182.7578 0001459  80.4301 279.6852 15.06413193121810","REV_AT_EPOCH":"12181","PERIOD":"95.591","MEAN_MOTION":"15.06413193","BSTAR":"0.00113490000000","INCLINATION":"53.0530","PERIAPSIS":"546.163","ECCENTRICITY":"0.00014590","SEMIMAJOR_AXIS":"6925.308","OBJECT_NAME":"STARLINK-2143","ARG_OF_PERICENTER":"80.4301","ELEMENT_SET_NO":"999","EPOCH":"2023-05-10T20:06:56.663712","LAUNCH_DATE":"2021-03-04","EPHEMERIS_TYPE":"0","FILE":"3904830","OBJECT_TYPE":"PAYLOAD","CENTER_NAME":"EARTH","COUNTRY_CODE":"US","APOAPSIS":"548.184","TLE_LINE1":"1 47733U 21017M   23130.83815583  .00016669  00000-0  11349-2 0  9993","RCS_SIZE":"LARGE","REF_FRAME":"TEME","OBJECT_ID":"2021-017M","MEAN_MOTION_DDOT":"0.0000000000000","GP_ID":"231565205","TIME_SYSTEM":"UTC","MEAN_MOTION_DOT":"0.00016669","NORAD_CAT_ID":"47733","CLASSIFICATION_TYPE":"U","RA_OF_ASC_NODE":"182.7578"},{"TIME_SYSTEM":"UTC","NORAD_CAT_ID":"47734","MEAN_MOTION_DOT":"0.00009217","RA_OF_ASC_NODE":"174.7526","CLASSIFICATION_TYPE":"U","RCS_SIZE":"LARGE","OBJECT_ID":"2021-017N","REF_FRAME":"TEME","GP_ID":"231540633","MEAN_MOTION_DDOT":"0.0000000000000","FILE":"3904683","COUNTRY_CODE":"US","OBJECT_TYPE":"PAYLOAD","CENTER_NAME":"EARTH","TLE_LINE1":"1 47734U 21017N   23130.39307744  .00009217  00000-0  63692-3 0  9990","APOAPSIS":"548.141","ELEMENT_SET_NO":"999","EPOCH":"2023-05-10T09:26:01.890816","LAUNCH_DATE":"2021-03-04","EPHEMERIS_TYPE":"0","PERIAPSIS":"546.314","OBJECT_NAME":"STARLINK-2144","SEMIMAJOR_AXIS":"6925.363","ECCENTRICITY":"0.00013190","ARG_OF_PERICENTER":"73.0835","REV_AT_EPOCH":"12120","TLE_LINE2":"2 47734  53.0519 174.7526 0001319  73.0835 287.0299 15.06395345121206","MEAN_MOTION":"15.06395345","PERIOD":"95.592","BSTAR":"0.00063692000000","INCLINATION":"53.0519","SITE":"AFETR","MEAN_ANOMALY":"287.0299","DECAY_DATE":null,"MEAN_ELEMENT_THEORY":"SGP4"},{"FILE":"3904555","TLE_LINE1":"1 47735U 21017P   23130.21017561  .00002240  00000-0  16924-3 0  9992","APOAPSIS":"548.077","COUNTRY_CODE":"US","OBJECT_TYPE":"PAYLOAD","CENTER_NAME":"EARTH","NORAD_CAT_ID":"47735","MEAN_MOTION_DOT":"0.00002240","TIME_SYSTEM":"UTC","RA_OF_ASC_NODE":"100.7320","CLASSIFICATION_TYPE":"U","RCS_SIZE":"LARGE","GP_ID":"231532826","MEAN_MOTION_DDOT":"0.0000000000000","OBJECT_ID":"2021-017P","REF_FRAME":"TEME","MEAN_MOTION":"15.06395810","PERIOD":"95.592","REV_AT_EPOCH":"12285","TLE_LINE2":"2 47735  53.0551 100.7320 0001228  83.5674 276.5455 15.06395810122856","INCLINATION":"53.0551","BSTAR":"0.00016924000000","MEAN_ANOMALY":"276.5455","DECAY_DATE":null,"MEAN_ELEMENT_THEORY":"SGP4","SITE":"AFETR","EPOCH":"2023-05-10T05:02:39.172704","ELEMENT_SET_NO":"999","EPHEMERIS_TYPE":"0","LAUNCH_DATE":"2021-03-04","PERIAPSIS":"546.376","ARG_OF_PERICENTER":"83.5674","SEMIMAJOR_AXIS":"6925.361","ECCENTRICITY":"0.00012280","OBJECT_NAME":"STARLINK-2146"},{"OBJECT_ID":"2021-017Q","REF_FRAME":"TEME","GP_ID":"231565957","MEAN_MOTION_DDOT":"0.0000000000000","RCS_SIZE":"LARGE","RA_OF_ASC_NODE":"162.8114","CLASSIFICATION_TYPE":"U","TIME_SYSTEM":"UTC","NORAD_CAT_ID":"47736","MEAN_MOTION_DOT":"0.00004142","COUNTRY_CODE":"US","OBJECT_TYPE":"PAYLOAD","CENTER_NAME":"EARTH","TLE_LINE1":"1 47736U 21017Q   23130.82525629  .00004142  00000-0  29675-3 0  9999","APOAPSIS":"548.200","FILE":"3904830","OBJECT_NAME":"STARLINK-2147","SEMIMAJOR_AXIS":"6925.336","ECCENTRICITY":"0.00014430","ARG_OF_PERICENTER":"87.3982","PERIAPSIS":"546.202","LAUNCH_DATE":"2021-03-04","EPHEMERIS_TYPE":"0","ELEMENT_SET_NO":"999","EPOCH":"2023-05-10T19:48:22.143456","SITE":"AFETR","DECAY_DATE":null,"MEAN_ANOMALY":"272.7172","MEAN_ELEMENT_THEORY":"SGP4","BSTAR":"0.00029675000000","INCLINATION":"53.0530","REV_AT_EPOCH":"12209","TLE_LINE2":"2 47736  53.0530 162.8114 0001443  87.3982 272.7172 15.06404111122092","MEAN_MOTION":"15.06404111","PERIOD":"95.592"},{"SITE":"AFETR","MEAN_ANOMALY":"291.1701","DECAY_DATE":null,"MEAN_ELEMENT_THEORY":"SGP4","REV_AT_EPOCH":"12347","TLE_LINE2":"2 47737  53.0548  16.6090 0001288  68.9438 291.1701 15.35768016123474","MEAN_MOTION":"15.35768016","PERIOD":"93.764","BSTAR":"-0.00018400000000","INCLINATION":"53.0548","PERIAPSIS":"457.762","SEMIMAJOR_AXIS":"6836.777","ECCENTRICITY":"0.00012880","OBJECT_NAME":"STARLINK-2148","ARG_OF_PERICENTER":"68.9438","ELEMENT_SET_NO":"999","EPOCH":"2023-05-10T18:42:21.775680","LAUNCH_DATE":"2021-03-04","EPHEMERIS_TYPE":"0","FILE":"3904683","COUNTRY_CODE":"US","OBJECT_TYPE":"PAYLOAD","CENTER_NAME":"EARTH","TLE_LINE1":"1 47737U 21017R   23130.77941870 -.00006871  00000-0 -18400-3 0  9991","APOAPSIS":"459.523","RCS_SIZE":"LARGE","OBJECT_ID":"2021-017R","REF_FRAME":"TEME","GP_ID":"231540628","MEAN_MOTION_DDOT":"0.0000000000000","TIME_SYSTEM":"UTC","NORAD_CAT_ID":"47737","MEAN_MOTION_DOT":"-0.00006871","RA_OF_ASC_NODE":"16.6090","CLASSIFICATION_TYPE":"U"},{"EPHEMERIS_TYPE":"0","LAUNCH_DATE":"2021-03-04","EPOCH":"2023-05-10T19:11:15.145440","ELEMENT_SET_NO":"999","ARG_OF_PERICENTER":"93.9282","SEMIMAJOR_AXIS":"6925.346","ECCENTRICITY":"0.00011220","OBJECT_NAME":"STARLINK-2149","PERIAPSIS":"546.434","INCLINATION":"53.0522","BSTAR":"0.00102180000000","MEAN_MOTION":"15.06400764","PERIOD":"95.592","REV_AT_EPOCH":"12140","TLE_LINE2":"2 47738  53.0522 163.2037 0001122  93.9282 266.1835 15.06400764121401","MEAN_ANOMALY":"266.1835","DECAY_DATE":null,"MEAN_ELEMENT_THEORY":"SGP4","SITE":"AFETR","RA_OF_ASC_NODE":"163.2037","CLASSIFICATION_TYPE":"U","NORAD_CAT_ID":"47738","MEAN_MOTION_DOT":"0.00014971","TIME_SYSTEM":"UTC","GP_ID":"231565455","MEAN_MOTION_DDOT":"0.0000000000000","OBJECT_ID":"2021-017S","REF_FRAME":"TEME","RCS_SIZE":"LARGE","TLE_LINE1":"1 47738U 21017S   23130.79948085  .00014971  00000-0  10218-2 0  9995","APOAPSIS":"547.988","COUNTRY_CODE":"US","CENTER_NAME":"EARTH","OBJECT_TYPE":"PAYLOAD","FILE":"3904830"},{"SEMIMAJOR_AXIS":"6925.333","ECCENTRICITY":"0.00011580","OBJECT_NAME":"STARLINK-2150","ARG_OF_PERICENTER":"73.4197","PERIAPSIS":"546.396","LAUNCH_DATE":"2021-03-04","EPHEMERIS_TYPE":"0","ELEMENT_SET_NO":"999","EPOCH":"2023-05-10T21:17:56.714208","SITE":"AFETR","DECAY_DATE":null,"MEAN_ANOMALY":"286.6919","MEAN_ELEMENT_THEORY":"SGP4","BSTAR":"0.00190120000000","INCLINATION":"53.0517","REV_AT_EPOCH":"12175","TLE_LINE2":"2 47739  53.0517 187.5323 0001158  73.4197 286.6919 15.06405224121754","MEAN_MOTION":"15.06405224","PERIOD":"95.592","OBJECT_ID":"2021-017T","REF_FRAME":"TEME","GP_ID":"231566207","MEAN_MOTION_DDOT":"0.0000000000000","RCS_SIZE":"LARGE","RA_OF_ASC_NODE":"187.5323","CLASSIFICATION_TYPE":"U","TIME_SYSTEM":"UTC","NORAD_CAT_ID":"47739","MEAN_MOTION_DOT":"0.00028154","COUNTRY_CODE":"US","CENTER_NAME":"EARTH","OBJECT_TYPE":"PAYLOAD","TLE_LINE1":"1 47739U 21017T   23130.88746197  .00028154  00000-0  19012-2 0  9995","APOAPSIS":"548.000","FILE":"3904830"},{"OBJECT_TYPE":"PAYLOAD","CENTER_NAME":"EARTH","COUNTRY_CODE":"US","APOAPSIS":"548.069","TLE_LINE1":"1 47740U 21017U   23130.40413602  .00010184  00000-0  70151-3 0  9993","FILE":"3904555","REF_FRAME":"TEME","OBJECT_ID":"2021-017U","MEAN_MOTION_DDOT":"0.0000000000000","GP_ID":"231533575","RCS_SIZE":"LARGE","CLASSIFICATION_TYPE":"U","RA_OF_ASC_NODE":"174.7043","TIME_SYSTEM":"UTC","MEAN_MOTION_DOT":"0.00010184","NORAD_CAT_ID":"47740","SITE":"AFETR","MEAN_ELEMENT_THEORY":"SGP4","DECAY_DATE":null,"MEAN_ANOMALY":"263.9605","BSTAR":"0.00070151000000","INCLINATION":"53.0522","TLE_LINE2":"2 47740  53.0522 174.7043 0001245  96.1526 263.9605 15.06402324121886","REV_AT_EPOCH":"12188","PERIOD":"95.592","MEAN_MOTION":"15.06402324","SEMIMAJOR_AXIS":"6925.341","ECCENTRICITY":"0.00012450","OBJECT_NAME":"STARLINK-2152","ARG_OF_PERICENTER":"96.1526","PERIAPSIS":"546.344","LAUNCH_DATE":"2021-03-04","EPHEMERIS_TYPE":"0","ELEMENT_SET_NO":"999","EPOCH":"2023-05-10T09:41:57.352128"},{"EPOCH":"2023-05-10T19:36:25.305120","ELEMENT_SET_NO":"999","EPHEMERIS_TYPE":"0","LAUNCH_DATE":"2021-03-04","PERIAPSIS":"546.384","ARG_OF_PERICENTER":"93.7095","SEMIMAJOR_AXIS":"6925.325","OBJECT_NAME":"STARLINK-2154","ECCENTRICITY":"0.00011640","PERIOD":"95.592","MEAN_MOTION":"15.06407569","TLE_LINE2":"2 47741  53.0525 172.8534 0001164  93.7095 266.4027 15.06407569121903","REV_AT_EPOCH":"12190","INCLINATION":"53.0525","BSTAR":"0.00114180000000","MEAN_ELEMENT_THEORY":"SGP4","MEAN_ANOMALY":"266.4027","DECAY_DATE":null,"SITE":"AFETR","MEAN_MOTION_DOT":"0.00016770","NORAD_CAT_ID":"47741","TIME_SYSTEM":"UTC","CLASSIFICATION_TYPE":"U","RA_OF_ASC_NODE":"172.8534","RCS_SIZE":"LARGE","MEAN_MOTION_DDOT":"0.0000000000000","GP_ID":"231565206","REF_FRAME":"TEME","OBJECT_ID":"2021-017V","FILE":"3904830","APOAPSIS":"547.996","TLE_LINE1":"1 47741U 21017V   23130.81695955  .00016770  00000-0  11418-2 0  9999","OBJECT_TYPE":"PAYLOAD","CENTER_NAME":"EARTH","COUNTRY_CODE":"US"}];
